NORAD_CAT_ID,OBJECT_NAME,OBJECT_TYPE,EPOCH,MEAN_MOTION,ECCENTRICITY,INCLINATION,RA_OF_ASC_NODE,ARG_OF_PERICENTER,MEAN_ANOMALY,BSTAR,MEAN_MOTION_DOT,MEAN_MOTION_DDOT,TLE_LINE0,TLE_LINE1,TLE_LINE2,SEMIMAJOR_AXIS,PERIOD,APOGEE,PERIGEE,DECAYED
56801.0,STARLINK-6087,PAYLOAD,2024-08-03 12:31:55,14.98310234,0.0002987,70.0006,354.7016,272.6989,87.3828,-0.00028153,-3.449e-05,0.0,0 STARLINK-6087,1 56801U 23078AL  24216.52217457 -.00003449  00000-0 -28153-3 0  9992,2 56801  70.0006 354.7016 0002987 272.6989  87.3828 14.98310234 66081,6950.254,96.108,574.195,570.043,0.0
56801.0,STARLINK-6087,PAYLOAD,2024-08-03 14:08:04,14.98309668,0.0003034,70.0014,354.5349,273.0811,87.0,-0.0002954,-3.614e-05,0.0,0 STARLINK-6087,1 56801U 23078AL  24216.58893621 -.00003614  00000-0 -29540-3 0  9996,2 56801  70.0014 354.5349 0003034 273.0811  87.0000 14.98309668 65830,6950.256,96.108,574.229,570.012,0.0
56801.0,STARLINK-6087,PAYLOAD,2024-08-03 18:56:28,14.98314132,0.0003183,70.0014,354.0314,267.5796,92.4999,-0.00024948,-3.067e-05,0.0,0 STARLINK-6087,1 56801U 23078AL  24216.78921395 -.00003067  00000-0 -24948-3 0  9997,2 56801  70.0014 354.0314 0003183 267.5796  92.4999 14.98314132 65864,6950.242,96.108,574.319,569.895,0.0
56801.0,STARLINK-6087,PAYLOAD,2024-08-04 02:57:08,14.98314663,0.0003325,70.0015,353.1898,267.1984,92.8795,-0.00026859,-3.295e-05,0.0,0 STARLINK-6087,1 56801U 23078AL  24217.12301727 -.00003295  00000-0 -26859-3 0  9993,2 56801  70.0015 353.1898 0003325 267.1984  92.8795 14.98314663 66177,6950.24,96.108,574.416,569.794,0.0
56801.0,STARLINK-6087,PAYLOAD,2024-08-04 12:33:55,14.98325806,0.0003758,69.9997,352.1801,271.9249,88.1479,0.00011715,1.305e-05,0.0,0 STARLINK-6087,1 56801U 23078AL  24217.52355852  .00001305  00000-0  11715-3 0  9998,2 56801  69.9997 352.1801 0003758 271.9249  88.1479 14.98325806 66238,6950.206,96.107,574.683,569.459,0.0
56801.0,STARLINK-6087,PAYLOAD,2024-08-04 14:10:03,14.98328725,0.0003626,69.9997,352.0119,273.01,87.0644,0.00014755,1.668e-05,0.0,0 STARLINK-6087,1 56801U 23078AL  24217.59031631  .00001668  00000-0  14755-3 0  9990,2 56801  69.9997 352.0119 0003626 273.0100  87.0644 14.98328725 65988,6950.197,96.107,574.582,569.542,0.0
56801.0,STARLINK-6087,PAYLOAD,2024-08-04 18:58:26,14.98347846,0.0003506,70.0009,351.5068,272.698,87.3778,0.00029798,3.466e-05,0.0,0 STARLINK-6087,1 56801U 23078AL  24217.79057936  .00003466  00000-0  29798-3 0  9999,2 56801  70.0009 351.5068 0003506 272.6980  87.3778 14.98347846 66279,6950.138,96.106,574.439,569.566,0.0
56801.0,STARLINK-6087,PAYLOAD,2024-08-05 12:35:55,14.98330744,0.0003316,70.0023,349.6554,272.172,87.9059,0.00035262,4.117e-05,0.0,0 STARLINK-6087,1 56801U 23078AL  24218.52494572  .00004117  00000-0  35262-3 0  9999,2 56801  70.0023 349.6554 0003316 272.1720  87.9059 14.98330744 66388,6950.191,96.107,574.36,569.751,0.0
56801.0,STARLINK-6087,PAYLOAD,2024-08-05 19:00:26,14.98341136,0.0003464,70.0015,348.9821,269.4179,90.6584,0.0003904,4.57e-05,0.0,0 STARLINK-6087,1 56801U 23078AL  24218.79197600  .00004570  00000-0  39040-3 0  9991,2 56801  70.0015 348.9821 0003464 269.4179  90.6584 14.98341136 66425,6950.158,96.106,574.431,569.616,0.0
56801.0,STARLINK-6087,PAYLOAD,2024-08-06 01:25:00,14.98333532,0.0003805,69.9992,348.3089,275.776,84.2965,2.9542e-05,2.59e-06,0.0,0 STARLINK-6087,1 56801U 23078AL  24219.05902822  .00000259  00000-0  29542-4 0  9998,2 56801  69.9992 348.3089 0003805 275.7760  84.2965 14.98333532 66468,6950.182,96.107,574.692,569.402,0.0
56801.0,STARLINK-6087,PAYLOAD,2024-08-06 14:14:05,14.98333929,0.0003116,70.0028,346.9639,272.9509,87.1293,-0.00019302,-2.396e-05,0.0,0 STARLINK-6087,1 56801U 23078AL  24219.59311442 -.00002396  00000-0 -19302-3 0  9997,2 56801  70.0028 346.9639 0003116 272.9509  87.1293 14.98333929 66287,6950.181,96.107,574.211,569.88,0.0
56801.0,STARLINK-6087,PAYLOAD,2024-08-06 19:02:29,14.98335011,0.0003238,70.0026,346.4609,264.5254,95.5536,-0.00022948,-2.83e-05,0.0,0 STARLINK-6087,1 56801U 23078AL  24219.79339350 -.00002830  00000-0 -22948-3 0  9990,2 56801  70.0026 346.4609 0003238 264.5254  95.5536 14.98335011 66317,6950.177,96.107,574.293,569.792,0.0
56801.0,STARLINK-6087,PAYLOAD,2024-08-07 12:40:00,14.98309543,0.0004537,70.0024,344.6067,207.9015,152.1901,-0.00037476,-4.56e-05,0.0,0 STARLINK-6087,1 56801U 23078AL  24220.52778067 -.00004560  00000-0 -37476-3 0  9999,2 56801  70.0024 344.6067 0004537 207.9015 152.1901 14.98309543 66689,6950.256,96.108,575.274,568.968,0.0
56801.0,STARLINK-6087,PAYLOAD,2024-08-07 17:28:21,14.98344564,0.0003475,70.002,344.1014,268.3417,91.7344,4.7945e-05,4.79e-06,0.0,0 STARLINK-6087,1 56801U 23078AL  24220.72803060  .00000479  00000-0  47945-4 0  9999,2 56801  70.0020 344.1014 0003475 268.3417  91.7344 14.98344564 66714,6950.148,96.106,574.428,569.598,0.0
56801.0,STARLINK-6087,PAYLOAD,2024-08-08 14:18:06,14.98327075,0.0003172,70.003,341.9145,267.8085,92.2711,9.8729e-05,1.085e-05,0.0,0 STARLINK-6087,1 56801U 23078AL  24221.59590591  .00001085  00000-0  98729-4 0  9997,2 56801  70.0030 341.9145 0003172 267.8085  92.2711 14.98327075 66581,6950.202,96.107,574.272,569.862,0.0
56801.0,STARLINK-6087,PAYLOAD,2024-08-08 17:30:22,14.98331276,0.0003146,70.0032,341.5781,267.1553,92.9246,0.00014718,1.664e-05,0.0,0 STARLINK-6087,1 56801U 23078AL  24221.72942266  .00001664  00000-0  14718-3 0  9990,2 56801  70.0032 341.5781 0003146 267.1553  92.9246 14.98331276 66868,6950.189,96.107,574.24,569.867,0.0
56801.0,STARLINK-6087,PAYLOAD,2024-08-09 12:43:49,14.99232412,0.0007504,70.004,339.5612,205.952,154.1265,-0.014904,-0.00177725,0.0,0 STARLINK-6087,1 56801U 23078AL  24222.53043003 -.00177725  00000-0 -14904-1 0  9990,2 56801  70.0040 339.5612 0007504 205.9520 154.1265 14.99232412 66981,6947.404,96.049,574.482,564.055,0.0
56801.0,STARLINK-6087,PAYLOAD,2024-08-09 14:19:54,14.99231023,0.0007265,70.0024,339.3894,202.395,157.6893,-0.015045,-0.0017935,0.0,0 STARLINK-6087,1 56801U 23078AL  24222.59715783 -.00179350  00000-0 -15045-1 0  9990,2 56801  70.0024 339.3894 0007265 202.3950 157.6893 14.99231023 66730,6947.408,96.049,574.32,564.226,0.0
56801.0,STARLINK-6087,PAYLOAD,2024-08-10 14:00:01,14.98412059,0.0003722,70.0029,336.9021,273.0297,4.3085,-0.0099553,-0.00117172,0.0,0 STARLINK-6087,1 56801U 23078AL  24223.58335648 -.00117172  00000-0 -99553-2 0  9999,2 56801  70.0029 336.9021 0003722 273.0297   4.3085 14.98412059 67149,6949.939,96.102,574.391,569.217,0.0
56801.0,STARLINK-6087,PAYLOAD,2024-08-10 17:34:22,14.98350414,0.000347,70.0017,336.5271,265.2617,94.8146,0.00020484,2.353e-05,0.0,0 STARLINK-6087,1 56801U 23078AL  24223.73220172  .00002353  00000-0  20484-3 0  9991,2 56801  70.0017 336.5271 0003470 265.2617  94.8146 14.98350414 67168,6950.13,96.106,574.406,569.583,0.0
56801.0,STARLINK-6087,PAYLOAD,2024-08-11 09:35:44,14.98325959,0.0003486,70.0017,334.8449,270.5197,89.5562,-8.9165e-05,-1.157e-05,0.0,0 STARLINK-6087,1 56801U 23078AL  24224.39982537 -.00001157  00000-0 -89165-4 0  9999,2 56801  70.0017 334.8449 0003486 270.5197  89.5562 14.98325959 67265,6950.205,96.107,574.493,569.648,0.0
56801.0,STARLINK-6087,PAYLOAD,2024-08-11 17:36:25,14.9832776,0.0003375,70.0016,334.003,271.6807,88.3965,-6.8693e-05,-9.13e-06,0.0,0 STARLINK-6087,1 56801U 23078AL  24224.73362461 -.00000913  00000-0 -68693-4 0  9997,2 56801  70.0016 334.0030 0003375 271.6807  88.3965 14.98327760 67052,6950.2,96.107,574.411,569.719,0.0
56801.0,STARLINK-6087,PAYLOAD,2024-08-12 12:00:00,14.98419096,0.000365,70.0026,332.0699,275.328,257.4748,-0.0090456,-0.00106651,0.0,0 STARLINK-6087,1 56801U 23078AL  24225.50001157 -.00106651  00000-0 -90456-2 0  9991,2 56801  70.0026 332.0699 0003650 275.3280 257.4748 14.98419096 67438,6949.917,96.101,574.319,569.246,0.0
56801.0,STARLINK-6087,PAYLOAD,2024-08-12 14:00:01,14.98425788,0.0003607,70.0025,331.8597,276.1427,346.1101,-0.013815,-0.00161601,0.0,0 STARLINK-6087,1 56801U 23078AL  24225.58335648 -.00161601  00000-0 -13815-1 0  9993,2 56801  70.0025 331.8597 0003607 276.1427 346.1101 14.98425788  5767,6949.897,96.101,574.269,569.255,0.0
56801.0,STARLINK-6087,PAYLOAD,2024-08-12 17:38:59,14.97950863,0.0002481,70.0002,331.4771,196.6073,163.5005,-0.0041192,-0.00048426,0.0,0 STARLINK-6087,1 56801U 23078AL  24225.73541512 -.00048426  00000-0 -41192-2 0  9998,2 56801  70.0002 331.4771 0002481 196.6073 163.5005 14.97950863 67469,6951.366,96.131,574.955,571.506,0.0
56801.0,STARLINK-6087,PAYLOAD,2024-08-13 04:00:01,14.98262561,0.0003226,70.0023,330.3889,268.0207,259.9062,0.011473,0.00139316,0.0,0 STARLINK-6087,1 56801U 23078AL  24226.16668981  .00139316  00000-0  11473-1 0  9991,2 56801  70.0023 330.3889 0003226 268.0207 259.9062 14.98262561 67534,6950.401,96.111,574.509,570.024,0.0
56801.0,STARLINK-6087,PAYLOAD,2024-08-13 12:00:00,14.98402201,0.0003218,70.0025,329.5485,269.1738,256.1429,-0.0066956,-0.00079237,0.0,0 STARLINK-6087,1 56801U 23078AL  24226.50001157 -.00079237  00000-0 -66956-2 0  9999,2 56801  70.0025 329.5485 0003218 269.1738 256.1429 14.98402201 67588,6949.97,96.102,574.071,569.598,0.0
56801.0,STARLINK-6087,PAYLOAD,2024-08-13 14:00:01,14.98422481,0.0003223,70.0024,329.3383,269.3969,345.3009,-0.013322,-0.00155942,0.0,0 STARLINK-6087,1 56801U 23078AL  24226.58334491 -.00155942  00000-0 -13322-1 0  9993,2 56801  70.0024 329.3383 0003223 269.3969 345.3009 14.98422481  5765,6949.907,96.101,574.012,569.532,0.0
56801.0,STARLINK-6087,PAYLOAD,2024-08-13 22:00:00,14.98286368,0.0003196,70.0021,328.4977,266.4322,345.8013,-0.0018104,-0.00021604,0.0,0 STARLINK-6087,1 56801U 23078AL  24226.91667824 -.00021604  00000-0 -18104-2 0  9990,2 56801  70.0021 328.4977 0003196 266.4322 345.8013 14.98286368  5819,6950.328,96.11,574.414,569.971,0.0
56801.0,STARLINK-6087,PAYLOAD,2024-08-14 00:05:02,14.9828564,0.000341,70.0029,328.2783,276.7705,83.3066,-0.00049015,-5.93e-05,0.0,0 STARLINK-6087,1 56801U 23078AL  24227.00350099 -.00005930  00000-0 -49015-3 0  9994,2 56801  70.0029 328.2783 0003410 276.7705  83.3066 14.98285640 67652,6950.33,96.11,574.565,569.825,0.0
